STARLINK-37780          
1 69340U 26122M   26163.25003472 -.02509748  00000+0 -11944-1 0  9992
2 69340  97.2839 192.4350 0001637  80.7432 128.4464 15.85974153  2613
STARLINK-37781          
1 69341U 26122N   26163.25003472 -.02488935  00000+0 -12905-1 0  9995
2 69341  97.2841 192.4327 0001713  79.3247 123.8634 15.84174703  2568
STARLINK-37782          
1 69342U 26122P   26163.25003472 -.01217562  00000+0 -50516-2 0  9992
2 69342  97.2840 192.4410 0001303  83.0698 140.0045 15.88511481  2567
STARLINK-37776          
1 69343U 26122Q   26163.25003472 -.01220448  00000+0 -50262-2 0  9998
2 69343  97.2840 192.4423 0001306  82.5568 144.3868 15.88665975  2563
STARLINK-37786          
1 69344U 26122R   26163.25003472 -.01213238  00000+0 -48766-2 0  9994
2 69344  97.2848 192.4468 0001196  83.2653 153.6217 15.89131984  2561
STARLINK-37785          
1 69345U 26122S   26163.25003472 -.01212563  00000+0 -48768-2 0  9997
2 69345  97.2845 192.4469 0001169  82.1885 155.4939 15.89118730  2560
STARLINK-37773          
1 69346U 26122T   26163.25003472 -.01937145  10112-2 -64091-2 0  9993
2 69346  97.2849 192.4499 0001339  78.2353 165.6490 15.90506374  2611
STARLINK-37744          
1 69347U 26122U   26163.25003472 -.00776756  18369-3 -26501-2 0  9999
2 69347  97.2851 192.4515 0000938  91.9277 156.1563 15.89736775  2563
STARLINK-37775          
1 69348U 26122V   26163.25003472 -.02446487  00000+0 -10401-1 0  9997
2 69348  97.2852 192.4525 0001472  89.2858 160.0100 15.88771211  2569
STARLINK-37777          
1 69349U 26122W   26163.25003472 -.02426336  00000+0 -10221-1 0  9999
2 69349  97.2856 192.4550 0001481  88.5155 166.6681 15.88917993  2569
STARLINK-37779          
1 69350U 26122X   26163.25003472 -.02414339  00000+0 -10562-1 0  9999
2 69350  97.2860 192.4577 0001419  94.2508 168.3819 15.88150658  2561
STARLINK-37549          
1 69351U 26122Y   26163.25003472 -.02504761  00000+0 -11756-1 0  9995
2 69351  97.2861 192.4549 0001431  97.4019 158.2527 15.86253488  2565
STARLINK-37778          
1 69352U 26122Z   26163.25003472 -.02459467  00000+0 -10186-1 0  9994
2 69352  97.2860 192.4603 0001394  87.7687 179.8390 15.89310800  2569
STARLINK-37651          
1 69353U 26123A   26163.25003472 -.01763430  00000+0 -80801-2 0  9995
2 69353  53.1582 266.5739 0000749  86.3912 312.9283 15.86086713  2352
STARLINK-37652          
1 69354U 26123B   26163.25003472 -.01851455  00000+0 -88651-2 0  9992
2 69354  53.1582 266.5760 0000815  86.1485 312.1624 15.84830984  2350
STARLINK-37593          
1 69355U 26123C   26163.25003472 -.01866110  00000+0 -88779-2 0  9998
2 69355  53.1584 266.5665 0001107  68.6902 334.1155 15.84983109  2408
STARLINK-37597          
1 69356U 26123D   26163.25003472 -.01800681  00000+0 -85645-2 0  9999
2 69356  53.1581 266.5507 0000904  81.3537 329.1083 15.85399247  2400
STARLINK-37598          
1 69357U 26123E   26163.25003472 -.01753270  00000+0 -80406-2 0  9991
2 69357  53.1579 266.5322 0000878  81.6644 337.7602 15.86047900  2404
STARLINK-37602          
1 69358U 26123F   26163.25003472 -.01776032  00000+0 -81105-2 0  9990
2 69358  53.1579 266.5232 0000952  81.8742 341.9790 15.86176435  2400
STARLINK-37600          
1 69359U 26123G   26163.25003472 -.01735481  00000+0 -75708-2 0  9996
2 69359  53.1576 266.4975 0000810  85.4811 350.6931 15.87022618  2409
STARLINK-37599          
1 69360U 26123H   26163.25003472 -.01803880  00000+0 -68800-2 0  9992
2 69360  53.1577 266.4577 0001161  75.7571  19.5728 15.89794548  2354
STARLINK-37039          
1 69361U 26123J   26163.25003472 -.01801655  00000+0 -79339-2 0  9990
2 69361  53.1576 266.4758 0001021  62.5982  23.8741 15.86955991  2351
STARLINK-37040          
1 69362U 26123K   26163.25003472 -.00435235  71789-4 -12121-2 0  9990
2 69362  53.1576 266.4137 0000857  63.5620  52.6797 15.92896854  2359
STARLINK-37582          
1 69363U 26123L   26163.25003472 -.01728271  00000+0 -70779-2 0  9993
2 69363  53.1575 266.4365 0001233  64.1064  41.3376 15.88261282  2354
STARLINK-37309          
1 69364U 26123M   26163.25003472 -.00391801  61735-4 -97639-3 0  9990
2 69364  53.1573 266.3715 0000810  63.6663  73.0919 15.94965920  2497
STARLINK-37436          
1 69365U 26123N   26163.25003472 -.00399029  63941-4 -96275-3 0  9997
2 69365  53.1575 266.3445 0000766  62.4313  87.1714 15.95568033  2493
STARLINK-37581          
1 69366U 26123P   26163.25003472 -.00390625  61568-4 -96192-3 0  9992
2 69366  53.1576 266.3405 0000856  62.0741  89.6046 15.95186420  2347
STARLINK-37683          
1 69367U 26123Q   26163.25003472 -.00405608  65618-4 -98147-3 0  9993
2 69367  53.1576 266.3256 0000877  60.2111  98.4782 15.95517602  2352
STARLINK-37687          
1 69368U 26123R   26163.25003472 -.00357236  54335-4 -80286-3 0  9996
2 69368  53.1575 266.2929 0000848  60.4226 114.0437 15.96844755  2350
