OBJECT_NAME,OBJECT_ID,EPOCH,MEAN_MOTION,ECCENTRICITY,INCLINATION,RA_OF_ASC_NODE,ARG_OF_PERICENTER,MEAN_ANOMALY,EPHEMERIS_TYPE,CLASSIFICATION_TYPE,NORAD_CAT_ID,ELEMENT_SET_NO,REV_AT_EPOCH,BSTAR,MEAN_MOTION_DOT,MEAN_MOTION_DDOT
STARLINK-37780,2026-122M,2026-06-12T06:00:02.999808,15.85974153,.00016373,97.2839,192.4350,80.7432,128.4464,0,U,69340,999,261,-.11944164E-1,-.2509748E-1,0
STARLINK-37781,2026-122N,2026-06-12T06:00:02.999808,15.84174703,.00017133,97.2841,192.4327,79.3247,123.8634,0,U,69341,999,256,-.12905332E-1,-.2488935E-1,0
STARLINK-37782,2026-122P,2026-06-12T06:00:02.999808,15.88511481,.00013033,97.2840,192.4410,83.0698,140.0045,0,U,69342,999,256,-.50516021E-2,-.1217562E-1,0
STARLINK-37776,2026-122Q,2026-06-12T06:00:02.999808,15.88665975,.00013063,97.2840,192.4423,82.5568,144.3868,0,U,69343,999,256,-.50262051E-2,-.1220448E-1,0
STARLINK-37786,2026-122R,2026-06-12T06:00:02.999808,15.89131984,.00011965,97.2848,192.4468,83.2653,153.6217,0,U,69344,999,256,-.48765615E-2,-.1213238E-1,0
STARLINK-37785,2026-122S,2026-06-12T06:00:02.999808,15.89118730,.00011694,97.2845,192.4469,82.1885,155.4939,0,U,69345,999,256,-.48767957E-2,-.1212563E-1,0
STARLINK-37773,2026-122T,2026-06-12T06:00:02.999808,15.90506374,.00013394,97.2849,192.4499,78.2353,165.6490,0,U,69346,999,261,-.64090849E-2,-.1937145E-1,.10112415E-2
STARLINK-37744,2026-122U,2026-06-12T06:00:02.999808,15.89736775,.00009382,97.2851,192.4515,91.9277,156.1563,0,U,69347,999,256,-.26500848E-2,-.776756E-2,.18368865E-3
STARLINK-37775,2026-122V,2026-06-12T06:00:02.999808,15.88771211,.00014725,97.2852,192.4525,89.2858,160.0100,0,U,69348,999,256,-.10401142E-1,-.2446487E-1,0
STARLINK-37777,2026-122W,2026-06-12T06:00:02.999808,15.88917993,.00014817,97.2856,192.4550,88.5155,166.6681,0,U,69349,999,256,-.10220849E-1,-.2426336E-1,0
STARLINK-37779,2026-122X,2026-06-12T06:00:02.999808,15.88150658,.00014196,97.2860,192.4577,94.2508,168.3819,0,U,69350,999,256,-.10561551E-1,-.2414339E-1,0
STARLINK-37549,2026-122Y,2026-06-12T06:00:02.999808,15.86253488,.00014318,97.2861,192.4549,97.4019,158.2527,0,U,69351,999,256,-.11756159E-1,-.2504761E-1,0
STARLINK-37778,2026-122Z,2026-06-12T06:00:02.999808,15.89310800,.00013945,97.2860,192.4603,87.7687,179.8390,0,U,69352,999,256,-.10186028E-1,-.2459467E-1,0
STARLINK-37651,2026-123A,2026-06-12T06:00:02.999808,15.86086713,.00007494,53.1582,266.5739,86.3912,312.9283,0,U,69353,999,235,-.80801244E-2,-.176343E-1,0
STARLINK-37652,2026-123B,2026-06-12T06:00:02.999808,15.84830984,.00008158,53.1582,266.5760,86.1485,312.1624,0,U,69354,999,235,-.88651353E-2,-.1851455E-1,0
STARLINK-37593,2026-123C,2026-06-12T06:00:02.999808,15.84983109,.0001107,53.1584,266.5665,68.6902,334.1155,0,U,69355,999,240,-.88778903E-2,-.186611E-1,0
STARLINK-37597,2026-123D,2026-06-12T06:00:02.999808,15.85399247,.00009041,53.1581,266.5507,81.3537,329.1083,0,U,69356,999,240,-.85644666E-2,-.1800681E-1,0
STARLINK-37598,2026-123E,2026-06-12T06:00:02.999808,15.86047900,.00008786,53.1579,266.5322,81.6644,337.7602,0,U,69357,999,240,-.80405849E-2,-.175327E-1,0
STARLINK-37602,2026-123F,2026-06-12T06:00:02.999808,15.86176435,.00009521,53.1579,266.5232,81.8742,341.9790,0,U,69358,999,240,-.81104759E-2,-.1776032E-1,0
STARLINK-37600,2026-123G,2026-06-12T06:00:02.999808,15.87022618,.00008102,53.1576,266.4975,85.4811,350.6931,0,U,69359,999,240,-.7570798E-2,-.1735481E-1,0
STARLINK-37599,2026-123H,2026-06-12T06:00:02.999808,15.89794548,.00011612,53.1577,266.4577,75.7571,19.5728,0,U,69360,999,235,-.68799624E-2,-.180388E-1,0
STARLINK-37039,2026-123J,2026-06-12T06:00:02.999808,15.86955991,.00010219,53.1576,266.4758,62.5982,23.8741,0,U,69361,999,235,-.79338785E-2,-.1801655E-1,0
STARLINK-37040,2026-123K,2026-06-12T06:00:02.999808,15.92896854,.00008577,53.1576,266.4137,63.5620,52.6797,0,U,69362,999,235,-.12120802E-2,-.435235E-2,.71788802E-4
STARLINK-37582,2026-123L,2026-06-12T06:00:02.999808,15.88261282,.00012335,53.1575,266.4365,64.1064,41.3376,0,U,69363,999,235,-.70778661E-2,-.1728271E-1,0
STARLINK-37309,2026-123M,2026-06-12T06:00:02.999808,15.94965920,.00008105,53.1573,266.3715,63.6663,73.0919,0,U,69364,999,249,-.97639091E-3,-.391801E-2,.61734707E-4
STARLINK-37436,2026-123N,2026-06-12T06:00:02.999808,15.95568033,.00007665,53.1575,266.3445,62.4313,87.1714,0,U,69365,999,249,-.96275498E-3,-.399029E-2,.63940831E-4
STARLINK-37581,2026-123P,2026-06-12T06:00:02.999808,15.95186420,.00008561,53.1576,266.3405,62.0741,89.6046,0,U,69366,999,234,-.96192139E-3,-.390625E-2,.61568282E-4
STARLINK-37683,2026-123Q,2026-06-12T06:00:02.999808,15.95517602,.00008777,53.1576,266.3256,60.2111,98.4782,0,U,69367,999,235,-.98146518E-3,-.405608E-2,.65618416E-4
STARLINK-37687,2026-123R,2026-06-12T06:00:02.999808,15.96844755,.00008484,53.1575,266.2929,60.4226,114.0437,0,U,69368,999,235,-.80285769E-3,-.357236E-2,.54335221E-4
